ONEWEB-0058             
1 45161U 20008AG  25223.88644693  .00000271  00000+0  73955-3 0  9990
2 45161  87.8778  97.9785 0001817  75.1994 284.9335 13.10370198267913
ONEWEB-0059             
1 45162U 20008AH  25223.88298930  .00000434  00000+0  12084-2 0  9996
2 45162  87.8780  97.9786 0001795  75.4424 284.6902 13.10370425267813
ONEWEB-0062             
1 45163U 20008AJ  25223.90869807 -.00000560  00000+0 -16410-2 0  9996
2 45163  87.8778  97.9523 0001478  70.7861 289.3426 13.10372411268430
ONEWEB-0065             
1 45164U 20008AK  25224.11785073  .00000272  00000+0  74412-3 0  9998
2 45164  87.8778  97.9358 0001785  91.6781 268.4551 13.10368316268145
ONEWEB-0066             
1 45424U 20020A   25224.06847280  .00000414  00000+0  11336-2 0  9997
2 45424  87.8794  82.6665 0002019  82.5985 277.5373 13.11417576262174
ONEWEB-0067             
1 45425U 20020B   25224.33478364 -.00000436  00000+0 -12666-2 0  9994
2 45425  87.8786  82.5234 0001945  83.7296 276.4054 13.11419230262265
ONEWEB-0080             
1 45426U 20020C   25223.65732528  .00000117  00000+0  29549-3 0  9997
2 45426  87.8798  82.7494 0001863  70.8308 289.3021 13.11418408262138
ONEWEB-0090             
1 45427U 20020D   25224.05831285  .00000585  00000+0  16159-2 0  9994
2 45427  87.8794  82.6708 0001697  80.7943 279.3377 13.11416656262161
ONEWEB-0061             
1 45428U 20020E   25223.86147711 -.00000480  00000+0 -13907-2 0  9991
2 45428  87.8795  82.6914 0001774  80.9142 279.2186 13.11416428262086
ONEWEB-0081             
1 45429U 20020F   25223.99558067  .00000312  00000+0  84578-3 0  9991
2 45429  87.8791  82.6844 0001983  83.3919 276.7435 13.11416059262210
ONEWEB-0069             
1 45430U 20020G   25224.06085316  .00000614  00000+0  16979-2 0  9998
2 45430  87.8795  82.6643 0001840  84.8253 275.3085 13.11416079262164
ONEWEB-0031             
1 45431U 20020H   25224.56693392 -.00000491  00000+0 -14206-2 0  9999
2 45431  87.8794  82.5930 0001591  77.5544 282.5762 13.11417681262204
ONEWEB-0027             
1 45432U 20020J   25223.94190671  .00000004  00000+0 -24166-4 0  9990
2 45432  87.9034  67.3788 0001369  85.0605 275.0683 13.17647965265635
ONEWEB-0064             
1 45433U 20020K   25224.33634628 -.00000518  00000+0 -14985-2 0  9997
2 45433  87.8795  82.6310 0001581  80.6550 279.4757 13.11417602262214
ONEWEB-0018             
1 45434U 20020L   25224.06339669  .00000603  00000+0  16644-2 0  9992
2 45434  87.8790  82.6693 0001780  81.3614 278.7716 13.11415949262123
ONEWEB-0083             
1 45435U 20020M   25224.05321179  .00000545  00000+0  15028-2 0  9999
2 45435  87.8798  82.6582 0001681  82.0097 278.1221 13.11418988262167
ONEWEB-0095             
1 45436U 20020N   25223.89225688 -.00000594  00000+0 -17132-2 0  9993
2 45436  87.8783  82.7128 0001419 106.4913 253.6371 13.11414652262142
