[{"OBJECT_NAME":"ONEWEB-0058","OBJECT_ID":"2020-008AG","EPOCH":"2025-08-11T21:16:29.014752","MEAN_MOTION":13.10370198,"ECCENTRICITY":0.0001817,"INCLINATION":87.8778,"RA_OF_ASC_NODE":97.9785,"ARG_OF_PERICENTER":75.1994,"MEAN_ANOMALY":284.9335,"EPHEMERIS_TYPE":0,"CLASSIFICATION_TYPE":"U","NORAD_CAT_ID":45161,"ELEMENT_SET_NO":999,"REV_AT_EPOCH":26791,"BSTAR":0.00073955,"MEAN_MOTION_DOT":2.71e-6,"MEAN_MOTION_DDOT":0},{"OBJECT_NAME":"ONEWEB-0059","OBJECT_ID":"2020-008AH","EPOCH":"2025-08-11T21:11:30.275520","MEAN_MOTION":13.10370425,"ECCENTRICITY":0.0001795,"INCLINATION":87.878,"RA_OF_ASC_NODE":97.9786,"ARG_OF_PERICENTER":75.4424,"MEAN_ANOMALY":284.6902,"EPHEMERIS_TYPE":0,"CLASSIFICATION_TYPE":"U","NORAD_CAT_ID":45162,"ELEMENT_SET_NO":999,"REV_AT_EPOCH":26781,"BSTAR":0.0012084,"MEAN_MOTION_DOT":4.34e-6,"MEAN_MOTION_DDOT":0},{"OBJECT_NAME":"ONEWEB-0062","OBJECT_ID":"2020-008AJ","EPOCH":"2025-08-11T21:48:31.513248","MEAN_MOTION":13.10372411,"ECCENTRICITY":0.0001478,"INCLINATION":87.8778,"RA_OF_ASC_NODE":97.9523,"ARG_OF_PERICENTER":70.7861,"MEAN_ANOMALY":289.3426,"EPHEMERIS_TYPE":0,"CLASSIFICATION_TYPE":"U","NORAD_CAT_ID":45163,"ELEMENT_SET_NO":999,"REV_AT_EPOCH":26843,"BSTAR":-0.001641,"MEAN_MOTION_DOT":-5.6e-6,"MEAN_MOTION_DDOT":0},{"OBJECT_NAME":"ONEWEB-0065","OBJECT_ID":"2020-008AK","EPOCH":"2025-08-12T02:49:42.303072","MEAN_MOTION":13.10368316,"ECCENTRICITY":0.0001785,"INCLINATION":87.8778,"RA_OF_ASC_NODE":97.9358,"ARG_OF_PERICENTER":91.6781,"MEAN_ANOMALY":268.4551,"EPHEMERIS_TYPE":0,"CLASSIFICATION_TYPE":"U","NORAD_CAT_ID":45164,"ELEMENT_SET_NO":999,"REV_AT_EPOCH":26814,"BSTAR":0.00074412,"MEAN_MOTION_DOT":2.72e-6,"MEAN_MOTION_DDOT":0},{"OBJECT_NAME":"ONEWEB-0066","OBJECT_ID":"2020-020A","EPOCH":"2025-08-12T01:38:36.049920","MEAN_MOTION":13.11417576,"ECCENTRICITY":0.0002019,"INCLINATION":87.8794,"RA_OF_ASC_NODE":82.6665,"ARG_OF_PERICENTER":82.5985,"MEAN_ANOMALY":277.5373,"EPHEMERIS_TYPE":0,"CLASSIFICATION_TYPE":"U","NORAD_CAT_ID":45424,"ELEMENT_SET_NO":999,"REV_AT_EPOCH":26217,"BSTAR":0.0011336,"MEAN_MOTION_DOT":4.14e-6,"MEAN_MOTION_DDOT":0},{"OBJECT_NAME":"ONEWEB-0067","OBJECT_ID":"2020-020B","EPOCH":"2025-08-12T08:02:05.306496","MEAN_MOTION":13.1141923,"ECCENTRICITY":0.0001945,"INCLINATION":87.8786,"RA_OF_ASC_NODE":82.5234,"ARG_OF_PERICENTER":83.7296,"MEAN_ANOMALY":276.4054,"EPHEMERIS_TYPE":0,"CLASSIFICATION_TYPE":"U","NORAD_CAT_ID":45425,"ELEMENT_SET_NO":999,"REV_AT_EPOCH":26226,"BSTAR":-0.0012666,"MEAN_MOTION_DOT":-4.36e-6,"MEAN_MOTION_DDOT":0},{"OBJECT_NAME":"ONEWEB-0080","OBJECT_ID":"2020-020C","EPOCH":"2025-08-11T15:46:32.904192","MEAN_MOTION":13.11418408,"ECCENTRICITY":0.0001863,"INCLINATION":87.8798,"RA_OF_ASC_NODE":82.7494,"ARG_OF_PERICENTER":70.8308,"MEAN_ANOMALY":289.3021,"EPHEMERIS_TYPE":0,"CLASSIFICATION_TYPE":"U","NORAD_CAT_ID":45426,"ELEMENT_SET_NO":999,"REV_AT_EPOCH":26213,"BSTAR":0.00029549,"MEAN_MOTION_DOT":1.17e-6,"MEAN_MOTION_DDOT":0},{"OBJECT_NAME":"ONEWEB-0090","OBJECT_ID":"2020-020D","EPOCH":"2025-08-12T01:23:58.230240","MEAN_MOTION":13.11416656,"ECCENTRICITY":0.0001697,"INCLINATION":87.8794,"RA_OF_ASC_NODE":82.6708,"ARG_OF_PERICENTER":80.7943,"MEAN_ANOMALY":279.3377,"EPHEMERIS_TYPE":0,"CLASSIFICATION_TYPE":"U","NORAD_CAT_ID":45427,"ELEMENT_SET_NO":999,"REV_AT_EPOCH":26216,"BSTAR":0.0016159,"MEAN_MOTION_DOT":5.85e-6,"MEAN_MOTION_DDOT":0},{"OBJECT_NAME":"ONEWEB-0061","OBJECT_ID":"2020-020E","EPOCH":"2025-08-11T20:40:31.622304","MEAN_MOTION":13.11416428,"ECCENTRICITY":0.0001774,"INCLINATION":87.8795,"RA_OF_ASC_NODE":82.6914,"ARG_OF_PERICENTER":80.9142,"MEAN_ANOMALY":279.2186,"EPHEMERIS_TYPE":0,"CLASSIFICATION_TYPE":"U","NORAD_CAT_ID":45428,"ELEMENT_SET_NO":999,"REV_AT_EPOCH":26208,"BSTAR":-0.0013907,"MEAN_MOTION_DOT":-4.8e-6,"MEAN_MOTION_DDOT":0},{"OBJECT_NAME":"ONEWEB-0081","OBJECT_ID":"2020-020F","EPOCH":"2025-08-11T23:53:38.169888","MEAN_MOTION":13.11416059,"ECCENTRICITY":0.0001983,"INCLINATION":87.8791,"RA_OF_ASC_NODE":82.6844,"ARG_OF_PERICENTER":83.3919,"MEAN_ANOMALY":276.7435,"EPHEMERIS_TYPE":0,"CLASSIFICATION_TYPE":"U","NORAD_CAT_ID":45429,"ELEMENT_SET_NO":999,"REV_AT_EPOCH":26221,"BSTAR":0.00084578,"MEAN_MOTION_DOT":3.12e-6,"MEAN_MOTION_DDOT":0},{"OBJECT_NAME":"ONEWEB-0069","OBJECT_ID":"2020-020G","EPOCH":"2025-08-12T01:27:37.713024","MEAN_MOTION":13.11416079,"ECCENTRICITY":0.000184,"INCLINATION":87.8795,"RA_OF_ASC_NODE":82.6643,"ARG_OF_PERICENTER":84.8253,"MEAN_ANOMALY":275.3085,"EPHEMERIS_TYPE":0,"CLASSIFICATION_TYPE":"U","NORAD_CAT_ID":45430,"ELEMENT_SET_NO":999,"REV_AT_EPOCH":26216,"BSTAR":0.0016979,"MEAN_MOTION_DOT":6.14e-6,"MEAN_MOTION_DDOT":0},{"OBJECT_NAME":"ONEWEB-0031","OBJECT_ID":"2020-020H","EPOCH":"2025-08-12T13:36:23.090688","MEAN_MOTION":13.11417681,"ECCENTRICITY":0.0001591,"INCLINATION":87.8794,"RA_OF_ASC_NODE":82.593,"ARG_OF_PERICENTER":77.5544,"MEAN_ANOMALY":282.5762,"EPHEMERIS_TYPE":0,"CLASSIFICATION_TYPE":"U","NORAD_CAT_ID":45431,"ELEMENT_SET_NO":999,"REV_AT_EPOCH":26220,"BSTAR":-0.0014206,"MEAN_MOTION_DOT":-4.91e-6,"MEAN_MOTION_DDOT":0},{"OBJECT_NAME":"ONEWEB-0027","OBJECT_ID":"2020-020J","EPOCH":"2025-08-11T22:36:20.739744","MEAN_MOTION":13.17647965,"ECCENTRICITY":0.0001369,"INCLINATION":87.9034,"RA_OF_ASC_NODE":67.3788,"ARG_OF_PERICENTER":85.0605,"MEAN_ANOMALY":275.0683,"EPHEMERIS_TYPE":0,"CLASSIFICATION_TYPE":"U","NORAD_CAT_ID":45432,"ELEMENT_SET_NO":999,"REV_AT_EPOCH":26563,"BSTAR":-2.4166e-5,"MEAN_MOTION_DOT":4.0e-8,"MEAN_MOTION_DDOT":0},{"OBJECT_NAME":"ONEWEB-0064","OBJECT_ID":"2020-020K","EPOCH":"2025-08-12T08:04:20.318592","MEAN_MOTION":13.11417602,"ECCENTRICITY":0.0001581,"INCLINATION":87.8795,"RA_OF_ASC_NODE":82.631,"ARG_OF_PERICENTER":80.655,"MEAN_ANOMALY":279.4757,"EPHEMERIS_TYPE":0,"CLASSIFICATION_TYPE":"U","NORAD_CAT_ID":45433,"ELEMENT_SET_NO":999,"REV_AT_EPOCH":26221,"BSTAR":-0.0014985,"MEAN_MOTION_DOT":-5.18e-6,"MEAN_MOTION_DDOT":0},{"OBJECT_NAME":"ONEWEB-0018","OBJECT_ID":"2020-020L","EPOCH":"2025-08-12T01:31:17.474016","MEAN_MOTION":13.11415949,"ECCENTRICITY":0.000178,"INCLINATION":87.879,"RA_OF_ASC_NODE":82.6693,"ARG_OF_PERICENTER":81.3614,"MEAN_ANOMALY":278.7716,"EPHEMERIS_TYPE":0,"CLASSIFICATION_TYPE":"U","NORAD_CAT_ID":45434,"ELEMENT_SET_NO":999,"REV_AT_EPOCH":26212,"BSTAR":0.0016644,"MEAN_MOTION_DOT":6.03e-6,"MEAN_MOTION_DDOT":0},{"OBJECT_NAME":"ONEWEB-0083","OBJECT_ID":"2020-020M","EPOCH":"2025-08-12T01:16:37.498656","MEAN_MOTION":13.11418988,"ECCENTRICITY":0.0001681,"INCLINATION":87.8798,"RA_OF_ASC_NODE":82.6582,"ARG_OF_PERICENTER":82.0097,"MEAN_ANOMALY":278.1221,"EPHEMERIS_TYPE":0,"CLASSIFICATION_TYPE":"U","NORAD_CAT_ID":45435,"ELEMENT_SET_NO":999,"REV_AT_EPOCH":26216,"BSTAR":0.0015028,"MEAN_MOTION_DOT":5.45e-6,"MEAN_MOTION_DDOT":0},{"OBJECT_NAME":"ONEWEB-0095","OBJECT_ID":"2020-020N","EPOCH":"2025-08-11T21:24:50.994432","MEAN_MOTION":13.11414652,"ECCENTRICITY":0.0001419,"INCLINATION":87.8783,"RA_OF_ASC_NODE":82.7128,"ARG_OF_PERICENTER":106.4913,"MEAN_ANOMALY":253.6371,"EPHEMERIS_TYPE":0,"CLASSIFICATION_TYPE":"U","NORAD_CAT_ID":45436,"ELEMENT_SET_NO":999,"REV_AT_EPOCH":26214,"BSTAR":-0.0017132,"MEAN_MOTION_DOT":-5.94e-6,"MEAN_MOTION_DDOT":0}]
